SENTINEL-6              
1 46984U 20086A   23196.39706732 -.00000026  00000+0  15093-3 0  9994
2 46984  66.0388 192.8631 0008096 269.2114  90.7974 12.80930617123696
